norad_id,name,regime,epoch,line1,line2,inclination,eccentricity,mean_motion,raan,arg_pericenter,mean_anomaly
43231,O3B FM15,MEO,20013.77673060,1 43231U 18024A   20013.77673060 -.00000015 +00000-0 +00000-0 0 0001\,2 43231 000.0476 005.7314 0002855 290.5950 063.6414 05.0011514203378,0.0476,0.0002855,5.00115142,5.7314,290.595,63.6414
43231,O3B FM15,MEO,20013.97662134,1 43231U 18024A   20013.97662134 -.00000015  00000-0  00000+0 0  1574\,2 43231   0.0476   5.6658 0002855 290.8089  63.4931  5.00115140 33816,0.0476,0.0002855,5.0011514,5.6658,290.8089,63.4931
43231,O3B FM15,MEO,20014.57629362,1 43231U 18024A   20014.57629362 -.00000016 +00000-0 +00000-0 0 0001\,2 43231 000.0476 005.6734 0002855 291.5229 062.7714 05.0011512703382,0.0476,0.0002855,5.00115127,5.6734,291.5229,62.7714
43231,O3B FM15,MEO,20015.37585648,1 43231U 18024A   20015.37585648 -.00000016 +00000-0 +00000-0 0 0001\,2 43231 000.0476 005.5605 0002855 292.4532 061.9540 05.0011513003385,0.0476,0.0002855,5.0011513,5.5605,292.4532,61.954
43231,O3B FM15,MEO,20015.97552872,1 43231U 18024A   20015.97552872 -.00000017 +00000-0 +00000-0 0 0001\,2 43231 000.0476 005.5636 0002852 292.9265 061.4775 05.0011512603389,0.0476,0.0002852,5.00115126,5.5636,292.9265,61.4775
43231,O3B FM15,MEO,20016.37531016,1 43231U 18024A   20016.37531016 -.00000017 +00000-0 +00000-0 0 0001\,2 43231 000.0476 005.4810 0002851 293.2588 061.2279 05.0011512903390,0.0476,0.0002851,5.00115129,5.481,293.2588,61.2279
43231,O3B FM15,MEO,20016.77509154,1 43231U 18024A   20016.77509154 -.00000018 +00000-0 +00000-0 0 0001\,2 43231 000.0476 005.4994 0002851 293.6926 060.7757 05.0011513703393,0.0476,0.0002851,5.00115137,5.4994,293.6926,60.7757
43231,O3B FM15,MEO,20017.37476369,1 43231U 18024A   20017.37476369 -.00000018 +00000-0 +00000-0 0 0001\,2 43231 000.0476 005.4030 0002851 294.3337 060.2309 05.0011514603395,0.0476,0.0002851,5.00115146,5.403,294.3337,60.2309
43231,O3B FM15,MEO,20018.37421750,1 43231U 18024A   20018.37421750 -.00000020 +00000-0 +00000-0 0 0158\,2 43231 000.0476 005.3224 0002851 295.3751 059.2701 05.0011514203403,0.0476,0.0002851,5.00115142,5.3224,295.3751,59.2701
43231,O3B FM15,MEO,20019.17378035,1 43231U 18024A   20019.17378035 -.00000021 +00000-0 +00000-0 0 0001\,2 43231 000.0476 005.2718 0002851 296.1786 058.5173 05.0011515403405,0.0476,0.0002851,5.00115154,5.2718,296.1786,58.5173
43231,O3B FM15,MEO,20019.37367096,1 43231U 18024A   20019.37367096 -.00000021 +00000-0 +00000-0 0 0001\,2 43231 000.0476 005.2584 0002851 296.3607 058.3485 05.0011516503406,0.0476,0.0002851,5.00115165,5.2584,296.3607,58.3485
43231,O3B FM15,MEO,20020.37312437,1 43231U 18024A   20020.37312437 -.00000023 +00000-0 +00000-0 0 0001\,2 43231 000.0477 005.2056 0002850 297.1809 057.5810 05.0011518703411,0.0477,0.000285,5.00115187,5.2056,297.1809,57.581
43231,O3B FM15,MEO,20020.77290594,1 43231U 18024A   20020.77290594 -.00000024 +00000-0 +00000-0 0 0001\,2 43231 000.0477 005.1784 0002850 297.5973 057.1917 05.0011518203413,0.0477,0.000285,5.00115182,5.1784,297.5973,57.1917
43231,O3B FM15,MEO,20022.97170417,1 43231U 18024A   20022.97170417 -.00000028  00000-0  00000+0 0  1598\,2 43231   0.0477   5.0051 0002848 300.2634  54.6990  5.00115192 34266,0.0477,0.0002848,5.00115192,5.0051,300.2634,54.699
43231,O3B FM15,MEO,20023.17159489,1 43231U 18024A   20023.17159489 -.00000028 +00000-0 +00000-0 0 0001\,2 43231 000.0477 005.0475 0002848 300.4618 054.4581 05.0011519703425,0.0477,0.0002848,5.00115197,5.0475,300.4618,54.4581
43231,O3B FM15,MEO,20024.37093899,1 43231U 18024A   20024.37093899 -.00000029 +00000-0 +00000-0 0 0001\,2 43231 000.0477 004.9484 0002846 301.8796 053.1397 05.0011523803431,0.0477,0.0002846,5.00115238,4.9484,301.8796,53.1397
43231,O3B FM15,MEO,20025.37039274,1 43231U 18024A   20025.37039274 -.00000029 +00000-0 +00000-0 0 0001\,2 43231 000.0477 004.8911 0002846 302.8776 052.1992 05.0011524703436,0.0477,0.0002846,5.00115247,4.8911,302.8776,52.1992
43231,O3B FM15,MEO,20026.16995570,1 43231U 18024A   20026.16995570 -.00000029 +00000-0 +00000-0 0 0001\,2 43231 000.0477 004.8893 0002847 303.6843 051.3947 05.0011526303440,0.0477,0.0002847,5.00115263,4.8893,303.6843,51.3947
43231,O3B FM15,MEO,20026.76962796,1 43231U 18024A   20026.76962796 -.00000028 +00000-0 +00000-0 0 0001\,2 43231 000.0477 004.7955 0002846 304.3713 050.8018 05.0011527003443,0.0477,0.0002846,5.0011527,4.7955,304.3713,50.8018
43231,O3B FM15,MEO,20027.36930033,1 43231U 18024A   20027.36930033 -.00000027  00000-0  00000+0 0  1605\,2 43231   0.0477   4.7035 0002847 305.0235  50.2419  5.00115270 34482,0.0477,0.0002847,5.0011527,4.7035,305.0235,50.2419
43231,O3B FM15,MEO,20027.76908202,1 43231U 18024A   20027.76908202 -.00000027 +00000-0 +00000-0 0 0001\,2 43231 000.0478 004.6784 0002848 305.4565 049.8343 05.0011526203447,0.0478,0.0002848,5.00115262,4.6784,305.4565,49.8343
43231,O3B FM15,MEO,20028.36875426,1 43231U 18024A   20028.36875426 -.00000026 +00000-0 +00000-0 0 0001\,2 43231 000.0478 004.6397 0002848 306.0527 049.2773 05.0011527403450,0.0478,0.0002848,5.00115274,4.6397,306.0527,49.2773
43231,O3B FM15,MEO,20028.76853601,1 43231U 18024A   20028.76853601 -.00000025 +00000-0 +00000-0 0 0001\,2 43231 000.0478 004.6080 0002849 306.5273 048.8347 05.0011526403452,0.0478,0.0002849,5.00115264,4.608,306.5273,48.8347
43231,O3B FM15,MEO,20029.16831739,1 43231U 18024A   20029.16831739 -.00000024 +00000-0 +00000-0 0 0001\,2 43231 000.0478 004.6245 0002846 306.7835 048.5623 05.0011528103455,0.0478,0.0002846,5.00115281,4.6245,306.7835,48.5623
43231,O3B FM15,MEO,20029.76798981,1 43231U 18024A   20029.76798981 -.00000023 +00000-0 +00000-0 0 0001\,2 43231 000.0478 004.5869 0002846 307.3354 048.0485 05.0011527703458,0.0478,0.0002846,5.00115277,4.5869,307.3354,48.0485
43231,O3B FM15,MEO,20030.36766229,1 43231U 18024A   20030.36766229 -.00000022 +00000-0 +00000-0 0 0001\,2 43231 000.0478 004.4977 0002846 307.9610 047.5125 05.0011527003460,0.0478,0.0002846,5.0011527,4.4977,307.961,47.5125
43231,O3B FM15,MEO,20031.16722546,1 43231U 18024A   20031.16722546 -.00000020 +00000-0 +00000-0 0 0001\,2 43231 000.0478 004.4863 0002848 308.8267 046.6590 05.0011526903465,0.0478,0.0002848,5.00115269,4.4863,308.8267,46.659
43231,O3B FM15,MEO,20032.36657025,1 43231U 18024A   20032.36657025 -.00000018  00000-0  00000+0 0  1619\,2 43231   0.0478   4.3436 0002848 310.1285  45.5008  5.00115260 34735,0.0478,0.0002848,5.0011526,4.3436,310.1285,45.5008
43231,O3B FM15,MEO,20033.16613334,1 43231U 18024A   20033.16613334 -.00000017 +00000-0 +00000-0 0 0001\,2 43231 000.0478 004.2880 0002848 310.9371 044.7484 05.0011525703475,0.0478,0.0002848,5.00115257,4.288,310.9371,44.7484
43231,O3B FM15,MEO,20033.76580553,1 43231U 18024A   20033.76580553 -.00000016 +00000-0 +00000-0 0 0001\,2 43231 000.0478 004.2559 0002850 311.4783 044.2396 05.0011526003478,0.0478,0.000285,5.0011526,4.2559,311.4783,44.2396
43231,O3B FM15,MEO,20034.76525950,1 43231U 18024A   20034.76525950 -.00000015 +00000-0 +00000-0 0 0001\,2 43231 000.0479 004.1867 0002850 312.8266 042.9612 05.0011524203483,0.0479,0.000285,5.00115242,4.1867,312.8266,42.9612
43231,O3B FM15,MEO,20038.16340219,1 43231U 18024A   20038.16340219 -.00000015 +00000-0 +00000-0 0 0001\,2 43231 000.0479 004.1120 0002850 316.4091 039.4542 05.0011517903500,0.0479,0.000285,5.00115179,4.112,316.4091,39.4542
43231,O3B FM15,MEO,20038.56318350,1 43231U 18024A   20038.56318350 -.00000016  00000-0  00000+0 0  1621\,2 43231   0.0479   4.0951 0002850 316.8519  39.0281  5.00115185 35043,0.0479,0.000285,5.00115185,4.0951,316.8519,39.0281
43231,O3B FM15,MEO,20038.96296470,1 43231U 18024A   20038.96296470 -.00000016 +00000-0 +00000-0 0 0001\,2 43231 000.0479 004.0864 0002850 317.2407 038.6481 05.0011519903504,0.0479,0.000285,5.00115199,4.0864,317.2407,38.6481
43231,O3B FM15,MEO,20039.56263678,1 43231U 18024A   20039.56263678 -.00000016 +00000-0 +00000-0 0 0001\,2 43231 000.0479 004.0114 0002850 317.9295 038.0343 05.0011519803507,0.0479,0.000285,5.00115198,4.0114,317.9295,38.0343
43231,O3B FM15,MEO,20039.76252765,1 43231U 18024A   20039.76252765 -.00000017 +00000-0 +00000-0 0 0001\,2 43231 000.0479 004.0075 0002851 318.1349 037.8327 05.0011518403508,0.0479,0.0002851,5.00115184,4.0075,318.1349,37.8327
43231,O3B FM15,MEO,20040.56209077,1 43231U 18024A   20040.56209077 -.00000017 +00000-0 +00000-0 0 0001\,2 43231 000.0479 003.9809 0002851 318.9899 037.0045 05.0011515803512,0.0479,0.0002851,5.00115158,3.9809,318.9899,37.0045
43231,O3B FM15,MEO,20041.36165402,1 43231U 18024A   20041.36165402 -.00000018 +00000-0 +00000-0 0 0001\,2 43231 000.0479 003.9447 0002851 319.9332 036.0975 05.0011512903516,0.0479,0.0002851,5.00115129,3.9447,319.9332,36.0975
43231,O3B FM15,MEO,20041.76143527,1 43231U 18024A   20041.76143527 -.00000018 +00000-0 +00000-0 0 0001\,2 43231 000.0479 003.8735 0002850 320.3568 035.7452 05.0011514703517,0.0479,0.000285,5.00115147,3.8735,320.3568,35.7452
43231,O3B FM15,MEO,20042.36110722,1 43231U 18024A   20042.36110722 -.00000019 +00000-0 +00000-0 0 0001\,2 43231 000.0479 003.8333 0002849 320.9847 035.1576 05.0011516703520,0.0479,0.0002849,5.00115167,3.8333,320.9847,35.1576
43231,O3B FM15,MEO,20042.56099802,1 43231U 18024A   20042.56099802 -.00000019 +00000-0 +00000-0 0 0001\,2 43231 000.0479 003.8234 0002849 321.1818 034.9704 05.0011516303521,0.0479,0.0002849,5.00115163,3.8234,321.1818,34.9704
43231,O3B FM15,MEO,20042.96077935,1 43231U 18024A   20042.96077935 -.00000020  00000-0  00000+0 0  1637\,2 43231   0.0478   3.7997 0002848 321.4728  34.7032  5.00115173 35266,0.0478,0.0002848,5.00115173,3.7997,321.4728,34.7032
43231,O3B FM15,MEO,20043.16067015,1 43231U 18024A   20043.16067015 -.00000020 +00000-0 +00000-0 0 0001\,2 43231 000.0478 003.7891 0002848 321.7026 034.4840 05.0011516903524,0.0478,0.0002848,5.00115169,3.7891,321.7026,34.484
43231,O3B FM15,MEO,20043.56045175,1 43231U 18024A   20043.56045175 -.00000020 +00000-0 +00000-0 0 0001\,2 43231 000.0479 003.8312 0002849 322.1414 034.0033 05.0011516303527,0.0479,0.0002849,5.00115163,3.8312,322.1414,34.0033
